Name,Address,City,State,Country,ZIP,Latitude,Longitude,Description
RSM Burlingame,Burlingame,Burlingame,CA,United States,94010,37.5844,-122.3661,Russian School of Mathematics - Competition Math Program
RSM Chino Hills,Chino Hills,Chino Hills,CA,United States,91709,33.9898,-117.7326,Russian School of Mathematics - Competition Math Program
RSM Cupertino,Cupertino,Cupertino,CA,United States,95014,37.3230,-122.0322,Russian School of Mathematics - Competition Math Program
RSM Dublin,Dublin,Dublin,CA,United States,94568,37.7022,-121.9358,Russian School of Mathematics - Competition Math Program
RSM Evergreen,Evergreen,San Jose,CA,United States,95148,37.2969,-121.7914,Russian School of Mathematics - Competition Math Program
RSM Fremont Center,Fremont Center,Fremont,CA,United States,94536,37.5485,-121.9886,Russian School of Mathematics - Competition Math Program
RSM Fremont Mission,Fremont Mission,Fremont,CA,United States,94539,37.5331,-121.9738,Russian School of Mathematics - Competition Math Program
RSM Fremont Stevenson,Fremont Stevenson,Fremont,CA,United States,94538,37.5663,-122.0553,Russian School of Mathematics - Competition Math Program
RSM Irvine,Irvine,Irvine,CA,United States,92614,33.6846,-117.8265,Russian School of Mathematics - Competition Math Program
RSM Irvine Woodbury,Irvine Woodbury,Irvine,CA,United States,92602,33.7175,-117.7931,Russian School of Mathematics - Competition Math Program
RSM Milpitas,Milpitas,Milpitas,CA,United States,95035,37.4323,-121.8995,Russian School of Mathematics - Competition Math Program
RSM Mountain View,Mountain View,Mountain View,CA,United States,94041,37.3861,-122.0839,Russian School of Mathematics - Competition Math Program
RSM North San Francisco,North San Francisco,San Francisco,CA,United States,94109,37.7849,-122.4094,Russian School of Mathematics - Competition Math Program
RSM Pasadena,Pasadena,Pasadena,CA,United States,91101,34.1478,-118.1445,Russian School of Mathematics - Competition Math Program
RSM Pleasanton,Pleasanton,Pleasanton,CA,United States,94566,37.6624,-121.8747,Russian School of Mathematics - Competition Math Program
RSM San Diego,San Diego,San Diego,CA,United States,92101,32.7157,-117.1611,Russian School of Mathematics - Competition Math Program
RSM San Fernando Valley,San Fernando Valley,Northridge,CA,United States,91344,34.2401,-118.4312,Russian School of Mathematics - Competition Math Program
RSM San Francisco Lakeside,San Francisco Lakeside,San Francisco,CA,United States,94116,37.7349,-122.4531,Russian School of Mathematics - Competition Math Program
RSM San Jose,San Jose,San Jose,CA,United States,95110,37.3382,-121.8863,Russian School of Mathematics - Competition Math Program
RSM San Jose Westgate,San Jose Westgate,San Jose,CA,United States,95129,37.3688,-121.9511,Russian School of Mathematics - Competition Math Program
RSM San Mateo,San Mateo,San Mateo,CA,United States,94403,37.5630,-122.3255,Russian School of Mathematics - Competition Math Program
RSM San Ramon,San Ramon,San Ramon,CA,United States,94583,37.7799,-121.9780,Russian School of Mathematics - Competition Math Program
RSM San Ramon Alcosta,San Ramon Alcosta,San Ramon,CA,United States,94582,37.7640,-121.9618,Russian School of Mathematics - Competition Math Program
RSM Saratoga,Saratoga,Saratoga,CA,United States,95070,37.2638,-122.0230,Russian School of Mathematics - Competition Math Program
RSM South Orange County,South Orange County,Irvine,CA,United States,92612,33.6189,-117.9298,Russian School of Mathematics - Competition Math Program
RSM Sunnyvale,Sunnyvale,Sunnyvale,CA,United States,94085,37.3688,-122.0363,Russian School of Mathematics - Competition Math Program
RSM Sunnyvale II,Sunnyvale II,Sunnyvale,CA,United States,94087,37.3541,-122.0077,Russian School of Mathematics - Competition Math Program
RSM Avon,Avon,Avon,CT,United States,06001,41.8009,-72.8370,Russian School of Mathematics - Competition Math Program
RSM Greenwich,Greenwich,Greenwich,CT,United States,06830,41.0262,-73.6282,Russian School of Mathematics - Competition Math Program
RSM Rocky Hill,Rocky Hill,Rocky Hill,CT,United States,06067,41.6598,-72.6581,Russian School of Mathematics - Competition Math Program
RSM Stamford,Stamford,Stamford,CT,United States,06901,41.0534,-73.5387,Russian School of Mathematics - Competition Math Program
RSM Buffalo Grove,Buffalo Grove,Buffalo Grove,IL,United States,60089,42.1664,-87.9595,Russian School of Mathematics - Competition Math Program
RSM Lincoln Park,Lincoln Park,Chicago,IL,United States,60614,41.9242,-87.6369,Russian School of Mathematics - Competition Math Program
RSM Naperville,Naperville,Naperville,IL,United States,60540,41.7508,-88.1535,Russian School of Mathematics - Competition Math Program
RSM Schaumburg,Schaumburg,Schaumburg,IL,United States,60173,42.0334,-88.0834,Russian School of Mathematics - Competition Math Program
RSM Skokie,Skokie,Skokie,IL,United States,60076,42.0334,-87.7337,Russian School of Mathematics - Competition Math Program
RSM Wheeling,Wheeling,Wheeling,IL,United States,60090,42.1392,-87.9289,Russian School of Mathematics - Competition Math Program
RSM Louisville,Louisville,Louisville,KY,United States,40202,38.2527,-85.7585,Russian School of Mathematics - Competition Math Program
RSM Acton,Acton,Acton,MA,United States,01720,42.4851,-71.4328,Russian School of Mathematics - Competition Math Program
RSM Andover,Andover,Andover,MA,United States,01810,42.6584,-71.1370,Russian School of Mathematics - Competition Math Program
RSM Arlington,Arlington,Arlington,MA,United States,02474,42.4153,-71.1564,Russian School of Mathematics - Competition Math Program
RSM Belmont,Belmont,Belmont,MA,United States,02478,42.3959,-71.1786,Russian School of Mathematics - Competition Math Program
RSM Brookline,Brookline,Brookline,MA,United States,02446,42.3318,-71.1211,Russian School of Mathematics - Competition Math Program
RSM Franklin,Franklin,Franklin,MA,United States,02038,42.0834,-71.3967,Russian School of Mathematics - Competition Math Program
RSM Lexington,Lexington,Lexington,MA,United States,02421,42.4473,-71.2245,Russian School of Mathematics - Competition Math Program
RSM Metrowest / Framingham,Metrowest / Framingham,Framingham,MA,United States,01701,42.2793,-71.4162,Russian School of Mathematics - Competition Math Program
RSM Milton,Milton,Milton,MA,United States,02186,42.2496,-71.0662,Russian School of Mathematics - Competition Math Program
RSM Newton,Newton,Newton,MA,United States,02458,42.3370,-71.2092,Russian School of Mathematics - Competition Math Program
RSM Sharon,Sharon,Sharon,MA,United States,02067,42.1237,-71.1786,Russian School of Mathematics - Competition Math Program
RSM Shrewsbury,Shrewsbury,Shrewsbury,MA,United States,01545,42.2959,-71.7123,Russian School of Mathematics - Competition Math Program
RSM Wellesley,Wellesley,Wellesley,MA,United States,02481,42.2968,-71.2928,Russian School of Mathematics - Competition Math Program
RSM West Newton,West Newton,Newton,MA,United States,02465,42.3648,-71.2245,Russian School of Mathematics - Competition Math Program
RSM Winchester,Winchester,Winchester,MA,United States,01890,42.4526,-71.1370,Russian School of Mathematics - Competition Math Program
RSM Chevy Chase,Chevy Chase,Chevy Chase,MD,United States,20815,38.9784,-77.0747,Russian School of Mathematics - Competition Math Program
RSM North Bethesda,North Bethesda,Bethesda,MD,United States,20852,39.0437,-77.1211,Russian School of Mathematics - Competition Math Program
RSM Rockville,Rockville,Rockville,MD,United States,20850,39.0840,-77.1528,Russian School of Mathematics - Competition Math Program
RSM Nashua,Nashua,Nashua,NH,United States,03060,42.7654,-71.4676,Russian School of Mathematics - Competition Math Program
RSM Edison,Edison,Edison,NJ,United States,08817,40.5187,-74.4121,Russian School of Mathematics - Competition Math Program
RSM Livingston,Livingston,Livingston,NJ,United States,07039,40.7962,-74.3146,Russian School of Mathematics - Competition Math Program
RSM Princeton,Princeton,Princeton,NJ,United States,08540,40.3573,-74.6672,Russian School of Mathematics - Competition Math Program
RSM Battery Park,Battery Park,New York,NY,United States,10004,40.7033,-74.0170,Russian School of Mathematics - Competition Math Program
RSM Brooklyn,Brooklyn,Brooklyn,NY,United States,11201,40.6782,-73.9442,Russian School of Mathematics - Competition Math Program
RSM Park Slope,Park Slope,Brooklyn,NY,United States,11215,40.6736,-73.9796,Russian School of Mathematics - Competition Math Program
RSM Scarsdale,Scarsdale,Scarsdale,NY,United States,10583,40.9890,-73.7785,Russian School of Mathematics - Competition Math Program
RSM Upper East Side 1 Ave,Upper East Side 1 Ave,New York,NY,United States,10021,40.7736,-73.9566,Russian School of Mathematics - Competition Math Program
RSM Upper East Side 78th St,Upper East Side 78th St,New York,NY,United States,10075,40.7767,-73.9549,Russian School of Mathematics - Competition Math Program
RSM Upper West Side,Upper West Side,New York,NY,United States,10024,40.7870,-73.9754,Russian School of Mathematics - Competition Math Program
RSM Coppell,Coppell,Coppell,TX,United States,75019,32.9546,-97.0150,Russian School of Mathematics - Competition Math Program
RSM Houston,Houston,Houston,TX,United States,77002,29.7604,-95.3698,Russian School of Mathematics - Competition Math Program
RSM Katy,Katy,Katy,TX,United States,77494,29.7858,-95.8244,Russian School of Mathematics - Competition Math Program
RSM North Austin,North Austin,Austin,TX,United States,78729,30.3909,-97.7173,Russian School of Mathematics - Competition Math Program
RSM Plano,Plano,Plano,TX,United States,75023,33.0198,-96.6989,Russian School of Mathematics - Competition Math Program
RSM Sugar Land,Sugar Land,Sugar Land,TX,United States,77478,29.6196,-95.6349,Russian School of Mathematics - Competition Math Program
RSM Arlington,Arlington,Arlington,VA,United States,22201,38.8816,-77.0910,Russian School of Mathematics - Competition Math Program
RSM Ashburn,Ashburn,Ashburn,VA,United States,20147,39.0437,-77.4875,Russian School of Mathematics - Competition Math Program
RSM Herndon,Herndon,Herndon,VA,United States,20170,38.9697,-77.3864,Russian School of Mathematics - Competition Math Program
RSM Tysons Corner,Tysons Corner,Vienna,VA,United States,22102,38.9184,-77.2311,Russian School of Mathematics - Competition Math Program
RSM Bellevue,Bellevue,Bellevue,WA,United States,98004,47.6101,-122.2015,Russian School of Mathematics - Competition Math Program
RSM Factoria,Factoria,Bellevue,WA,United States,98006,47.5732,-122.1651,Russian School of Mathematics - Competition Math Program
RSM Redmond,Redmond,Redmond,WA,United States,98052,47.6740,-122.1215,Russian School of Mathematics - Competition Math Program
RSM Richmond Hill,Richmond Hill,Richmond Hill,ON,Canada,L4C,43.8828,-79.4403,Russian School of Mathematics - Competition Math Program
RSM Toronto,Toronto,Toronto,ON,Canada,M5H,43.6532,-79.3832,Russian School of Mathematics - Competition Math Program
RSM Givatayim,Givatayim,Givatayim,,Israel,,32.0678,34.8063,Russian School of Mathematics - Competition Math Program
RSM Jerusalem,Jerusalem,Jerusalem,,Israel,,31.7683,35.2137,Russian School of Mathematics - Competition Math Program
RSM Rishon LeZion,Rishon LeZion,Rishon LeZion,,Israel,,31.9730,34.7925,Russian School of Mathematics - Competition Math Program
RSM Tel Aviv Central,Tel Aviv Central,Tel Aviv,,Israel,,32.0853,34.7818,Russian School of Mathematics - Competition Math Program
RSM Tel Aviv North,Tel Aviv North,Tel Aviv,,Israel,,32.1133,34.8044,Russian School of Mathematics - Competition Math Program
RSM Dubai,Dubai,Dubai,,UAE,,25.2048,55.2708,Russian School of Mathematics - Competition Math Program